[{"OBJECT_NAME":"ONEWEB-0434","OBJECT_ID":"2022-012K","EPOCH":"2026-03-05T22:51:01.850400","MEAN_MOTION":13.10375896,"ECCENTRICITY":0.00014972,"INCLINATION":87.8769,"RA_OF_ASC_NODE":56.8467,"ARG_OF_PERICENTER":66.1588,"MEAN_ANOMALY":293.9696,"EPHEMERIS_TYPE":0,"CLASSIFICATION_TYPE":"U","NORAD_CAT_ID":51631,"ELEMENT_SET_NO":999,"REV_AT_EPOCH":19580,"BSTAR":0.0014652996,"MEAN_MOTION_DOT":5.24e-6,"MEAN_MOTION_DDOT":0},{"OBJECT_NAME":"ONEWEB-0435","OBJECT_ID":"2022-012L","EPOCH":"2026-03-05T12:03:04.061376","MEAN_MOTION":13.10372797,"ECCENTRICITY":0.0001803,"INCLINATION":87.8766,"RA_OF_ASC_NODE":56.9269,"ARG_OF_PERICENTER":99.0626,"MEAN_ANOMALY":261.0705,"EPHEMERIS_TYPE":0,"CLASSIFICATION_TYPE":"U","NORAD_CAT_ID":51632,"ELEMENT_SET_NO":999,"REV_AT_EPOCH":19573,"BSTAR":0.0019536,"MEAN_MOTION_DOT":6.95e-6,"MEAN_MOTION_DDOT":0},{"OBJECT_NAME":"ONEWEB-0436","OBJECT_ID":"2022-012M","EPOCH":"2026-03-05T22:32:11.512896","MEAN_MOTION":13.17649677,"ECCENTRICITY":0.00018782,"INCLINATION":87.9156,"RA_OF_ASC_NODE":26.3401,"ARG_OF_PERICENTER":89.2001,"MEAN_ANOMALY":270.9346,"EPHEMERIS_TYPE":0,"CLASSIFICATION_TYPE":"U","NORAD_CAT_ID":51633,"ELEMENT_SET_NO":999,"REV_AT_EPOCH":20008,"BSTAR":-0.00010483057,"MEAN_MOTION_DOT":-2.8e-7,"MEAN_MOTION_DDOT":0},{"OBJECT_NAME":"ONEWEB-0438","OBJECT_ID":"2022-012N","EPOCH":"2026-03-05T22:38:52.014048","MEAN_MOTION":13.10376843,"ECCENTRICITY":0.00017653,"INCLINATION":87.8772,"RA_OF_ASC_NODE":56.8393,"ARG_OF_PERICENTER":79.6068,"MEAN_ANOMALY":280.5259,"EPHEMERIS_TYPE":0,"CLASSIFICATION_TYPE":"U","NORAD_CAT_ID":51634,"ELEMENT_SET_NO":999,"REV_AT_EPOCH":19582,"BSTAR":0.00015886681,"MEAN_MOTION_DOT":6.8e-7,"MEAN_MOTION_DDOT":0},{"OBJECT_NAME":"ONEWEB-0439","OBJECT_ID":"2022-012P","EPOCH":"2026-03-05T22:43:39.853056","MEAN_MOTION":13.10376303,"ECCENTRICITY":0.00017581,"INCLINATION":87.8766,"RA_OF_ASC_NODE":56.8284,"ARG_OF_PERICENTER":85.6741,"MEAN_ANOMALY":274.4588,"EPHEMERIS_TYPE":0,"CLASSIFICATION_TYPE":"U","NORAD_CAT_ID":51635,"ELEMENT_SET_NO":999,"REV_AT_EPOCH":19580,"BSTAR":0.00076905141,"MEAN_MOTION_DOT":2.81e-6,"MEAN_MOTION_DDOT":0},{"OBJECT_NAME":"ONEWEB-0442","OBJECT_ID":"2022-012Q","EPOCH":"2026-03-05T22:21:16.910208","MEAN_MOTION":13.17647832,"ECCENTRICITY":0.00018475,"INCLINATION":87.9143,"RA_OF_ASC_NODE":26.3814,"ARG_OF_PERICENTER":62.5337,"MEAN_ANOMALY":297.5982,"EPHEMERIS_TYPE":0,"CLASSIFICATION_TYPE":"U","NORAD_CAT_ID":51636,"ELEMENT_SET_NO":999,"REV_AT_EPOCH":20007,"BSTAR":0.00010465523,"MEAN_MOTION_DOT":5.4e-7,"MEAN_MOTION_DDOT":0},{"OBJECT_NAME":"ONEWEB-0443","OBJECT_ID":"2022-012R","EPOCH":"2026-03-05T22:49:12.476640","MEAN_MOTION":13.17649638,"ECCENTRICITY":0.00014379,"INCLINATION":87.9149,"RA_OF_ASC_NODE":26.3794,"ARG_OF_PERICENTER":89.8131,"MEAN_ANOMALY":270.3165,"EPHEMERIS_TYPE":0,"CLASSIFICATION_TYPE":"U","NORAD_CAT_ID":51637,"ELEMENT_SET_NO":999,"REV_AT_EPOCH":20012,"BSTAR":-0.00021890221,"MEAN_MOTION_DOT":-7.2e-7,"MEAN_MOTION_DDOT":0},{"OBJECT_NAME":"ONEWEB-0444","OBJECT_ID":"2022-012S","EPOCH":"2026-03-05T22:29:17.777184","MEAN_MOTION":13.10376662,"ECCENTRICITY":0.0001792,"INCLINATION":87.8774,"RA_OF_ASC_NODE":56.8286,"ARG_OF_PERICENTER":87.1982,"MEAN_ANOMALY":272.935,"EPHEMERIS_TYPE":0,"CLASSIFICATION_TYPE":"U","NORAD_CAT_ID":51638,"ELEMENT_SET_NO":999,"REV_AT_EPOCH":19581,"BSTAR":-0.00075664373,"MEAN_MOTION_DOT":-2.51e-6,"MEAN_MOTION_DDOT":0},{"OBJECT_NAME":"ONEWEB-0445","OBJECT_ID":"2022-012T","EPOCH":"2026-03-05T23:00:24.564960","MEAN_MOTION":13.10373718,"ECCENTRICITY":0.00020662,"INCLINATION":87.8777,"RA_OF_ASC_NODE":56.8033,"ARG_OF_PERICENTER":85.0776,"MEAN_ANOMALY":275.0587,"EPHEMERIS_TYPE":0,"CLASSIFICATION_TYPE":"U","NORAD_CAT_ID":51639,"ELEMENT_SET_NO":999,"REV_AT_EPOCH":19582,"BSTAR":0.0019149189,"MEAN_MOTION_DOT":6.81e-6,"MEAN_MOTION_DDOT":0},{"OBJECT_NAME":"ONEWEB-0446","OBJECT_ID":"2022-012U","EPOCH":"2026-03-05T22:26:53.973024","MEAN_MOTION":13.10376418,"ECCENTRICITY":0.00019632,"INCLINATION":87.8772,"RA_OF_ASC_NODE":56.8454,"ARG_OF_PERICENTER":84.11,"MEAN_ANOMALY":276.0251,"EPHEMERIS_TYPE":0,"CLASSIFICATION_TYPE":"U","NORAD_CAT_ID":51640,"ELEMENT_SET_NO":999,"REV_AT_EPOCH":19580,"BSTAR":-0.0010506593,"MEAN_MOTION_DOT":-3.54e-6,"MEAN_MOTION_DDOT":0},{"OBJECT_NAME":"ONEWEB-0448","OBJECT_ID":"2022-012V","EPOCH":"2026-03-05T22:34:04.896480","MEAN_MOTION":13.10376671,"ECCENTRICITY":0.00018023,"INCLINATION":87.8771,"RA_OF_ASC_NODE":56.8425,"ARG_OF_PERICENTER":87.5686,"MEAN_ANOMALY":272.5647,"EPHEMERIS_TYPE":0,"CLASSIFICATION_TYPE":"U","NORAD_CAT_ID":51641,"ELEMENT_SET_NO":999,"REV_AT_EPOCH":19577,"BSTAR":-0.0004052505,"MEAN_MOTION_DOT":-1.29e-6,"MEAN_MOTION_DDOT":0},{"OBJECT_NAME":"ONEWEB-0449","OBJECT_ID":"2022-012W","EPOCH":"2026-03-05T22:41:15.532224","MEAN_MOTION":13.10376533,"ECCENTRICITY":0.0001538,"INCLINATION":87.8777,"RA_OF_ASC_NODE":56.8198,"ARG_OF_PERICENTER":73.2992,"MEAN_ANOMALY":286.8304,"EPHEMERIS_TYPE":0,"CLASSIFICATION_TYPE":"U","NORAD_CAT_ID":51642,"ELEMENT_SET_NO":999,"REV_AT_EPOCH":19578,"BSTAR":0.00019940047,"MEAN_MOTION_DOT":8.2e-7,"MEAN_MOTION_DDOT":0},{"OBJECT_NAME":"ONEWEB-0451","OBJECT_ID":"2022-012X","EPOCH":"2026-03-05T22:27:21.223584","MEAN_MOTION":13.17648887,"ECCENTRICITY":0.00017625,"INCLINATION":87.9152,"RA_OF_ASC_NODE":26.3365,"ARG_OF_PERICENTER":78.1108,"MEAN_ANOMALY":282.0221,"EPHEMERIS_TYPE":0,"CLASSIFICATION_TYPE":"U","NORAD_CAT_ID":51643,"ELEMENT_SET_NO":999,"REV_AT_EPOCH":20006,"BSTAR":-2.3594291e-5,"MEAN_MOTION_DOT":4.0e-8,"MEAN_MOTION_DDOT":0},{"OBJECT_NAME":"ONEWEB-0452","OBJECT_ID":"2022-012Y","EPOCH":"2026-03-05T22:24:55.839168","MEAN_MOTION":13.17649057,"ECCENTRICITY":0.00015653,"INCLINATION":87.9142,"RA_OF_ASC_NODE":26.3837,"ARG_OF_PERICENTER":79.6482,"MEAN_ANOMALY":280.4826,"EPHEMERIS_TYPE":0,"CLASSIFICATION_TYPE":"U","NORAD_CAT_ID":51644,"ELEMENT_SET_NO":999,"REV_AT_EPOCH":20007,"BSTAR":-1.7608009e-5,"MEAN_MOTION_DOT":6.0e-8,"MEAN_MOTION_DDOT":0},{"OBJECT_NAME":"ONEWEB-0456","OBJECT_ID":"2022-012AA","EPOCH":"2026-03-05T22:55:36.777792","MEAN_MOTION":13.10373913,"ECCENTRICITY":0.00018206,"INCLINATION":87.8785,"RA_OF_ASC_NODE":56.7957,"ARG_OF_PERICENTER":91.8052,"MEAN_ANOMALY":268.3284,"EPHEMERIS_TYPE":0,"CLASSIFICATION_TYPE":"U","NORAD_CAT_ID":51646,"ELEMENT_SET_NO":999,"REV_AT_EPOCH":19582,"BSTAR":0.0015657525,"MEAN_MOTION_DOT":5.59e-6,"MEAN_MOTION_DDOT":0},{"OBJECT_NAME":"ONEWEB-0457","OBJECT_ID":"2022-012AB","EPOCH":"2026-03-05T22:22:07.125888","MEAN_MOTION":13.10377754,"ECCENTRICITY":0.00020624,"INCLINATION":87.8768,"RA_OF_ASC_NODE":56.8334,"ARG_OF_PERICENTER":76.444,"MEAN_ANOMALY":283.6917,"EPHEMERIS_TYPE":0,"CLASSIFICATION_TYPE":"U","NORAD_CAT_ID":51647,"ELEMENT_SET_NO":999,"REV_AT_EPOCH":19582,"BSTAR":-0.0013631827,"MEAN_MOTION_DOT":-4.63e-6,"MEAN_MOTION_DDOT":0},{"OBJECT_NAME":"ONEWEB-0458","OBJECT_ID":"2022-012AC","EPOCH":"2026-03-05T22:53:13.720992","MEAN_MOTION":13.1037551,"ECCENTRICITY":0.00016934,"INCLINATION":87.8777,"RA_OF_ASC_NODE":56.8094,"ARG_OF_PERICENTER":83.9324,"MEAN_ANOMALY":276.1996,"EPHEMERIS_TYPE":0,"CLASSIFICATION_TYPE":"U","NORAD_CAT_ID":51648,"ELEMENT_SET_NO":999,"REV_AT_EPOCH":19578,"BSTAR":0.001579744,"MEAN_MOTION_DOT":5.64e-6,"MEAN_MOTION_DDOT":0}]
