ONEWEB-0434             
1 51631U 22012K   26064.95210475  .00000524  00000+0  14653-2 0  9995
2 51631  87.8769  56.8467 0001497  66.1588 293.9696 13.10375896195804
ONEWEB-0435             
1 51632U 22012L   26064.50213034  .00000695  00000+0  19536-2 0  9995
2 51632  87.8766  56.9269 0001803  99.0626 261.0705 13.10372797195738
ONEWEB-0436             
1 51633U 22012M   26064.93902214 -.00000028  00000+0 -10483-3 0  9993
2 51633  87.9156  26.3401 0001878  89.2001 270.9346 13.17649677200088
ONEWEB-0438             
1 51634U 22012N   26064.94365757  .00000068  00000+0  15887-3 0  9995
2 51634  87.8772  56.8393 0001765  79.6068 280.5259 13.10376843195821
ONEWEB-0439             
1 51635U 22012P   26064.94698904  .00000281  00000+0  76905-3 0  9994
2 51635  87.8766  56.8284 0001758  85.6741 274.4588 13.10376303195807
ONEWEB-0442             
1 51636U 22012Q   26064.93144572  .00000054  00000+0  10466-3 0  9999
2 51636  87.9143  26.3814 0001847  62.5337 297.5982 13.17647832200078
ONEWEB-0443             
1 51637U 22012R   26064.95083885 -.00000072  00000+0 -21890-3 0  9996
2 51637  87.9149  26.3794 0001437  89.8131 270.3165 13.17649638200125
ONEWEB-0444             
1 51638U 22012S   26064.93701131 -.00000251  00000+0 -75664-3 0  9993
2 51638  87.8774  56.8286 0001792  87.1982 272.9350 13.10376662195812
ONEWEB-0445             
1 51639U 22012T   26064.95861765  .00000681  00000+0  19149-2 0  9996
2 51639  87.8777  56.8033 0002066  85.0776 275.0587 13.10373718195825
ONEWEB-0446             
1 51640U 22012U   26064.93534691 -.00000354  00000+0 -10507-2 0  9999
2 51640  87.8772  56.8454 0001963  84.1100 276.0251 13.10376418195802
ONEWEB-0448             
1 51641U 22012V   26064.94033445 -.00000129  00000+0 -40525-3 0  9996
2 51641  87.8771  56.8425 0001802  87.5686 272.5647 13.10376671195775
ONEWEB-0449             
1 51642U 22012W   26064.94531866  .00000082  00000+0  19940-3 0  9990
2 51642  87.8777  56.8198 0001538  73.2992 286.8304 13.10376533195783
ONEWEB-0451             
1 51643U 22012X   26064.93566231  .00000004  00000+0 -23594-4 0  9990
2 51643  87.9152  26.3365 0001762  78.1108 282.0221 13.17648887200067
ONEWEB-0452             
1 51644U 22012Y   26064.93397962  .00000006  00000+0 -17608-4 0  9995
2 51644  87.9142  26.3837 0001565  79.6482 280.4826 13.17649057200077
ONEWEB-0456             
1 51646U 22012AA  26064.95528678  .00000559  00000+0  15658-2 0  9992
2 51646  87.8785  56.7957 0001820  91.8052 268.3284 13.10373913195821
ONEWEB-0457             
1 51647U 22012AB  26064.93202692 -.00000463  00000+0 -13632-2 0  9992
2 51647  87.8768  56.8334 0002062  76.4440 283.6917 13.10377754195822
ONEWEB-0458             
1 51648U 22012AC  26064.95363103  .00000564  00000+0  15797-2 0  9994
2 51648  87.8777  56.8094 0001693  83.9324 276.1996 13.10375510195786
